{
  "type": "FeatureCollection",
  "features": [
    {
      "type": "Feature",
      "properties": {
        "norad_id": 66645,
        "name": "SHENZHOU-22",
        "group": "last-30-days",
        "lat": 4.55891200775877,
        "lon": 69.46308474426213,
        "alt_km": 385.0165039675767,
        "timestamp": "2025-12-04T21:36:14.653872+00:00",
        "meta_object_name": "SHENZHOU-22",
        "meta_object_id": "2025-272A",
        "meta_epoch": "2025-12-04T15:25:24.990240",
        "meta_mean_motion": 15.58669844,
        "meta_eccentricity": 0.00099747,
        "meta_inclination": 41.4682,
        "meta_ra_of_asc_node": 65.8455,
        "meta_arg_of_pericenter": 328.5002,
        "meta_mean_anomaly": 31.5238,
        "meta_ephemeris_type": 0,
        "meta_classification_type": "U",
        "meta_norad_cat_id": 66645,
        "meta_element_set_no": 999,
        "meta_rev_at_epoch": 26279,
        "meta_bstar": 0.00047697443,
        "meta_mean_motion_dot": 0.00037639,
        "meta_mean_motion_ddot": 0,
        "tle_line1": "1 66645U 25272A   25338.64265035  .00037639  00000+0  47697-3 0  9990",
        "tle_line2": "2 66645  41.4682  65.8455 0009974 328.5002  31.5238 15.58669844262790"
      },
      "geometry": {
        "type": "Point",
        "coordinates": [
          69.46308474426213,
          4.55891200775877
        ]
      }
    },
    {
      "type": "Feature",
      "properties": {
        "norad_id": 66646,
        "name": "CZ-2F R/B",
        "group": "last-30-days",
        "lat": -9.895828926267258,
        "lon": -108.5670376856136,
        "alt_km": 183.38179682756163,
        "timestamp": "2025-12-04T21:36:14.653886+00:00",
        "meta_object_name": "CZ-2F R/B",
        "meta_object_id": "2025-272B",
        "meta_epoch": "2025-11-26T11:17:54.506400",
        "meta_mean_motion": 16.01945612,
        "meta_eccentricity": 0.01210796,
        "meta_inclination": 41.4431,
        "meta_ra_of_asc_node": 114.9009,
        "meta_arg_of_pericenter": 133.7676,
        "meta_mean_anomaly": 227.3272,
        "meta_ephemeris_type": 0,
        "meta_classification_type": "U",
        "meta_norad_cat_id": 66646,
        "meta_element_set_no": 999,
        "meta_rev_at_epoch": 21,
        "meta_bstar": 0.00029319366,
        "meta_mean_motion_dot": 0.00449059,
        "meta_mean_motion_ddot": 7.567612e-06,
        "tle_line1": "1 66646U 25272B   25330.47076975  .00449059  75676-5  29319-3 0  9998",
        "tle_line2": "2 66646  41.4431 114.9009 0121079 133.7676 227.3272 16.01945612   217"
      },
      "geometry": {
        "type": "Point",
        "coordinates": [
          -108.5670376856136,
          -9.895828926267258
        ]
      }
    },
    {
      "type": "Feature",
      "properties": {
        "norad_id": 66647,
        "name": "COSMOS 2597 (RODNIK-S 22)",
        "group": "last-30-days",
        "lat": -4.908793506074746,
        "lon": -69.33049639522163,
        "alt_km": 1497.3496243701447,
        "timestamp": "2025-12-04T21:36:14.653897+00:00",
        "meta_object_name": "COSMOS 2597 (RODNIK-S 22)",
        "meta_object_id": "2025-273A",
        "meta_epoch": "2025-12-04T15:49:49.728576",
        "meta_mean_motion": 12.41951066,
        "meta_eccentricity": 0.00080984,
        "meta_inclination": 82.4982,
        "meta_ra_of_asc_node": 291.4672,
        "meta_arg_of_pericenter": 308.1672,
        "meta_mean_anomaly": 51.8677,
        "meta_ephemeris_type": 0,
        "meta_classification_type": "U",
        "meta_norad_cat_id": 66647,
        "meta_element_set_no": 999,
        "meta_rev_at_epoch": 113,
        "meta_bstar": -3.184357e-05,
        "meta_mean_motion_dot": 5e-08,
        "meta_mean_motion_ddot": 0,
        "tle_line1": "1 66647U 25273A   25338.65960334  .00000005  00000+0 -31844-4 0  9994",
        "tle_line2": "2 66647  82.4982 291.4672 0008098 308.1672  51.8677 12.41951066  1131"
      },
      "geometry": {
        "type": "Point",
        "coordinates": [
          -69.33049639522163,
          -4.908793506074746
        ]
      }
    },
    {
      "type": "Feature",
      "properties": {
        "norad_id": 66648,
        "name": "COSMOS 2598 (RODNIK-S 23)",
        "group": "last-30-days",
        "lat": 5.074130199550889,
        "lon": -68.00655469267757,
        "alt_km": 1496.7627339958626,
        "timestamp": "2025-12-04T21:36:14.653907+00:00",
        "meta_object_name": "COSMOS 2598 (RODNIK-S 23)",
        "meta_object_id": "2025-273B",
        "meta_epoch": "2025-12-04T06:06:47.884896",
        "meta_mean_motion": 12.42253119,
        "meta_eccentricity": 0.0008196,
        "meta_inclination": 82.5023,
        "meta_ra_of_asc_node": 291.7242,
        "meta_arg_of_pericenter": 297.6387,
        "meta_mean_anomaly": 62.386,
        "meta_ephemeris_type": 0,
        "meta_classification_type": "U",
        "meta_norad_cat_id": 66648,
        "meta_element_set_no": 999,
        "meta_rev_at_epoch": 108,
        "meta_bstar": -2.0719747e-05,
        "meta_mean_motion_dot": 7e-08,
        "meta_mean_motion_ddot": 0,
        "tle_line1": "1 66648U 25273B   25338.25472089  .00000007  00000+0 -20720-4 0  9999",
        "tle_line2": "2 66648  82.5023 291.7242 0008196 297.6387  62.3860 12.42253119  1089"
      },
      "geometry": {
        "type": "Point",
        "coordinates": [
          -68.00655469267757,
          5.074130199550889
        ]
      }
    },
    {
      "type": "Feature",
      "properties": {
        "norad_id": 66649,
        "name": "COSMOS 2599 (RODNIK-S 24)",
        "group": "last-30-days",
        "lat": -14.139237828298233,
        "lon": -70.57109005042409,
        "alt_km": 1498.0854153226,
        "timestamp": "2025-12-04T21:36:14.653917+00:00",
        "meta_object_name": "COSMOS 2599 (RODNIK-S 24)",
        "meta_object_id": "2025-273C",
        "meta_epoch": "2025-12-04T15:52:44.897664",
        "meta_mean_motion": 12.41671792,
        "meta_eccentricity": 0.0008324,
        "meta_inclination": 82.5023,
        "meta_ra_of_asc_node": 291.4778,
        "meta_arg_of_pericenter": 318.4721,
        "meta_mean_anomaly": 41.5725,
        "meta_ephemeris_type": 0,
        "meta_classification_type": "U",
        "meta_norad_cat_id": 66649,
        "meta_element_set_no": 999,
        "meta_rev_at_epoch": 113,
        "meta_bstar": -3.5781314e-05,
        "meta_mean_motion_dot": 5e-08,
        "meta_mean_motion_ddot": 0,
        "tle_line1": "1 66649U 25273C   25338.66163076  .00000005  00000+0 -35781-4 0  9999",
        "tle_line2": "2 66649  82.5023 291.4778 0008324 318.4721  41.5725 12.41671792  1133"
      },
      "geometry": {
        "type": "Point",
        "coordinates": [
          -70.57109005042409,
          -14.139237828298233
        ]
      }
    },
    {
      "type": "Feature",
      "properties": {
        "norad_id": 66650,
        "name": "2025-274A",
        "group": "last-30-days",
        "lat": -19.684104264777407,
        "lon": -90.979522109425,
        "alt_km": 594.2417348087201,
        "timestamp": "2025-12-04T21:36:14.653929+00:00",
        "meta_object_name": "2025-274A",
        "meta_object_id": "2025-274A",
        "meta_epoch": "2025-12-04T08:48:46.862784",
        "meta_mean_motion": 14.91617165,
        "meta_eccentricity": 0.00104087,
        "meta_inclination": 97.7386,
        "meta_ra_of_asc_node": 265.7091,
        "meta_arg_of_pericenter": 283.9382,
        "meta_mean_anomaly": 76.0679,
        "meta_ephemeris_type": 0,
        "meta_classification_type": "U",
        "meta_norad_cat_id": 66650,
        "meta_element_set_no": 999,
        "meta_rev_at_epoch": 115,
        "meta_bstar": 0.00037799921,
        "meta_mean_motion_dot": 3.743e-05,
        "meta_mean_motion_ddot": 0,
        "tle_line1": "1 66650U 25274A   25338.36720906  .00003743  00000+0  37800-3 0  9994",
        "tle_line2": "2 66650  97.7386 265.7091 0010408 283.9382  76.0679 14.91617165  1156"
      },
      "geometry": {
        "type": "Point",
        "coordinates": [
          -90.979522109425,
          -19.684104264777407
        ]
      }
    },
    {
      "type": "Feature",
      "properties": {
        "norad_id": 66651,
        "name": "2025-274B",
        "group": "last-30-days",
        "lat": -17.859953423513083,
        "lon": -91.2564424968882,
        "alt_km": 593.9591447184112,
        "timestamp": "2025-12-04T21:36:14.653939+00:00",
        "meta_object_name": "2025-274B",
        "meta_object_id": "2025-274B",
        "meta_epoch": "2025-12-04T08:48:19.804032",
        "meta_mean_motion": 14.91698789,
        "meta_eccentricity": 0.00106945,
        "meta_inclination": 97.7382,
        "meta_ra_of_asc_node": 265.709,
        "meta_arg_of_pericenter": 283.4795,
        "meta_mean_anomaly": 76.5232,
        "meta_ephemeris_type": 0,
        "meta_classification_type": "U",
        "meta_norad_cat_id": 66651,
        "meta_element_set_no": 999,
        "meta_rev_at_epoch": 115,
        "meta_bstar": 0.00084624109,
        "meta_mean_motion_dot": 8.473e-05,
        "meta_mean_motion_ddot": 0,
        "tle_line1": "1 66651U 25274B   25338.36689588  .00008473  00000+0  84624-3 0  9996",
        "tle_line2": "2 66651  97.7382 265.7090 0010694 283.4795  76.5232 14.91698789  1153"
      },
      "geometry": {
        "type": "Point",
        "coordinates": [
          -91.2564424968882,
          -17.859953423513083
        ]
      }
    }
  ]
}